NORAD_CAT_ID,OBJECT_NAME,OBJECT_TYPE,EPOCH,MEAN_MOTION,ECCENTRICITY,INCLINATION,RA_OF_ASC_NODE,ARG_OF_PERICENTER,MEAN_ANOMALY,BSTAR,MEAN_MOTION_DOT,MEAN_MOTION_DDOT,TLE_LINE0,TLE_LINE1,TLE_LINE2,SEMIMAJOR_AXIS,PERIOD,APOGEE,PERIGEE,DECAYED
52845.0,STARLINK-4168,PAYLOAD,2023-10-21 03:08:46,15.08832412,0.0001382,53.2176,342.2793,92.6918,267.4232,0.00046013,7.041e-05,0.0,0 STARLINK-4168,1 52845U 22062R   23294.13109693  .00007041  00000-0  46013-3 0  9997,2 52845  53.2176 342.2793 0001382  92.6918 267.4232 15.08832412 74853,6917.904,95.438,540.725,538.813,0.0
52845.0,STARLINK-4168,PAYLOAD,2023-10-21 12:41:05,15.08849396,0.0001894,53.217,340.4951,100.1456,259.975,0.00085579,0.00013362,0.0,0 STARLINK-4168,1 52845U 22062R   23294.52853469  .00013362  00000-0  85579-3 0  9990,2 52845  53.2170 340.4951 0001894 100.1456 259.9750 15.08849396 74426,6917.852,95.437,541.027,538.406,0.0
52845.0,STARLINK-4168,PAYLOAD,2023-10-21 20:38:01,15.08840075,0.000201,53.2174,339.0081,86.5554,273.5668,0.00037626,5.705e-05,0.0,0 STARLINK-4168,1 52845U 22062R   23294.85973822  .00005705  00000-0  37626-3 0  9994,2 52845  53.2174 339.0081 0002010  86.5554 273.5668 15.08840075 74475,6917.88,95.438,541.136,538.355,0.0
52845.0,STARLINK-4168,PAYLOAD,2023-10-22 09:21:06,15.08849941,0.0002112,53.2168,336.6276,91.5125,268.6109,0.00072125,0.00011212,0.0,0 STARLINK-4168,1 52845U 22062R   23295.38965628  .00011212  00000-0  72125-3 0  9991,2 52845  53.2168 336.6276 0002112  91.5125 268.6109 15.08849941 74555,6917.85,95.437,541.176,538.254,0.0
52845.0,STARLINK-4168,PAYLOAD,2023-10-23 09:11:53,15.08840677,0.0001856,53.2158,332.1671,88.7515,271.369,0.00017833,2.551e-05,0.0,0 STARLINK-4168,1 52845U 22062R   23296.38325788  .00002551  00000-0  17833-3 0  9990,2 52845  53.2158 332.1671 0001856  88.7515 271.3690 15.08840677 75193,6917.878,95.438,541.027,538.459,0.0
52845.0,STARLINK-4168,PAYLOAD,2023-10-24 09:02:40,15.08842358,0.0001687,53.2167,327.708,89.1218,270.9967,0.00014709,2.054e-05,0.0,0 STARLINK-4168,1 52845U 22062R   23297.37685901  .00002054  00000-0  14709-3 0  9993,2 52845  53.2167 327.7080 0001687  89.1218 270.9967 15.08842358 74856,6917.873,95.437,540.905,538.571,0.0
52845.0,STARLINK-4168,PAYLOAD,2023-10-25 08:53:27,15.08846865,0.000178,53.2168,323.2481,91.3817,268.7379,0.00018769,2.701e-05,0.0,0 STARLINK-4168,1 52845U 22062R   23298.37045642  .00002701  00000-0  18769-3 0  9995,2 52845  53.2168 323.2481 0001780  91.3817 268.7379 15.08846865 75497,6917.859,95.437,540.956,538.493,0.0
52845.0,STARLINK-4168,PAYLOAD,2023-10-26 00:47:19,15.08837882,0.0002206,53.218,320.2769,103.2633,256.8605,0.0001739,2.48e-05,0.0,0 STARLINK-4168,1 52845U 22062R   23299.03286109  .00002480  00000-0  17390-3 0  9997,2 52845  53.2180 320.2769 0002206 103.2633 256.8605 15.08837882 75590,6917.887,95.438,541.278,538.226,0.0
52845.0,STARLINK-4168,PAYLOAD,2023-10-26 07:08:51,15.08836521,0.0001771,53.2172,319.0877,99.8265,260.2927,-7.8422e-06,-4.13e-06,0.0,0 STARLINK-4168,1 52845U 22062R   23299.29782169 -.00000413  00000-0 -78422-5 0  9993,2 52845  53.2172 319.0877 0001771  99.8265 260.2927 15.08836521 75140,6917.891,95.438,540.981,538.531,0.0
52845.0,STARLINK-4168,PAYLOAD,2023-10-27 10:10:24,15.08852834,0.0001653,53.2161,314.0309,91.8582,268.2599,0.0002651,3.935e-05,0.0,0 STARLINK-4168,1 52845U 22062R   23300.42389498  .00003935  00000-0  26510-3 0  9998,2 52845  53.2161 314.0309 0001653  91.8582 268.2599 15.08852834 75807,6917.841,95.437,540.85,538.563,0.0
52845.0,STARLINK-4168,PAYLOAD,2023-10-27 18:07:20,15.08839776,0.0001468,53.2165,312.5454,100.5383,259.5774,6.4067e-05,7.32e-06,0.0,0 STARLINK-4168,1 52845U 22062R   23300.75509895  .00000732  00000-0  64067-4 0  9991,2 52845  53.2165 312.5454 0001468 100.5383 259.5774 15.08839776 75859,6917.881,95.438,540.762,538.731,0.0
52845.0,STARLINK-4168,PAYLOAD,2023-10-28 10:01:12,15.08841268,0.0001643,53.2151,309.5694,97.7093,262.4086,0.00015065,2.11e-05,0.0,0 STARLINK-4168,1 52845U 22062R   23301.41750178  .00002110  00000-0  15065-3 0  9992,2 52845  53.2151 309.5694 0001643  97.7093 262.4086 15.08841268 75461,6917.877,95.437,540.878,538.605,0.0
52845.0,STARLINK-4168,PAYLOAD,2023-10-28 17:58:08,15.08838772,0.0001633,53.215,308.0803,96.4392,263.6787,0.00010352,1.36e-05,0.0,0 STARLINK-4168,1 52845U 22062R   23301.74870379  .00001360  00000-0  10352-3 0  9994,2 52845  53.2150 308.0803 0001633  96.4392 263.6787 15.08838772 75516,6917.884,95.438,540.879,538.619,0.0
52845.0,STARLINK-4168,PAYLOAD,2023-10-29 05:05:49,15.08845051,0.0001625,53.2145,305.9988,97.9161,262.2016,0.00019095,2.753e-05,0.0,0 STARLINK-4168,1 52845U 22062R   23302.21238283  .00002753  00000-0  19095-3 0  9999,2 52845  53.2145 305.9988 0001625  97.9161 262.2016 15.08845051 76071,6917.865,95.437,540.854,538.606,0.0
52845.0,STARLINK-4168,PAYLOAD,2023-10-29 09:51:59,15.08848502,0.0001604,53.2147,305.1055,101.5235,258.5937,0.00026976,4.009e-05,0.0,0 STARLINK-4168,1 52845U 22062R   23302.41110067  .00004009  00000-0  26976-3 0  9992,2 52845  53.2147 305.1055 0001604 101.5235 258.5937 15.08848502 75614,6917.854,95.437,540.829,538.61,0.0
52845.0,STARLINK-4168,PAYLOAD,2023-10-29 17:48:55,15.08836829,0.0001795,53.2161,303.6208,90.2173,269.9025,9.2354e-05,1.182e-05,0.0,0 STARLINK-4168,1 52845U 22062R   23302.74230795  .00001182  00000-0  92354-4 0  9992,2 52845  53.2161 303.6208 0001795  90.2173 269.9025 15.08836829 76152,6917.89,95.438,540.997,538.513,0.0
52845.0,STARLINK-4168,PAYLOAD,2023-10-30 06:32:00,15.08839625,0.0001702,53.215,301.2398,97.6527,262.4659,0.00019805,2.865e-05,0.0,0 STARLINK-4168,1 52845U 22062R   23303.27222807  .00002865  00000-0  19805-3 0  9994,2 52845  53.2150 301.2398 0001702  97.6527 262.4659 15.08839625 75748,6917.882,95.438,540.924,538.569,0.0
52845.0,STARLINK-4168,PAYLOAD,2023-10-31 04:47:24,15.08842404,0.0001662,53.215,297.0779,93.7154,266.4028,0.00022241,3.254e-05,0.0,0 STARLINK-4168,1 52845U 22062R   23304.19959004  .00003254  00000-0  22241-3 0  9993,2 52845  53.2150 297.0779 0001662  93.7154 266.4028 15.08842404 76374,6917.873,95.437,540.888,538.588,0.0
52845.0,STARLINK-4168,PAYLOAD,2023-10-31 06:22:47,15.08845074,0.0001688,53.2156,296.78,96.6742,263.4442,0.00025252,3.734e-05,0.0,0 STARLINK-4168,1 52845U 22062R   23304.26582893  .00003734  00000-0  25252-3 0  9997,2 52845  53.2156 296.7800 0001688  96.6742 263.4442 15.08845074 75893,6917.865,95.437,540.898,538.562,0.0
52845.0,STARLINK-4168,PAYLOAD,2023-11-01 04:38:11,15.08841934,0.0001677,53.2167,292.6193,94.263,265.8554,0.00016265,2.302e-05,0.0,0 STARLINK-4168,1 52845U 22062R   23305.19319094  .00002302  00000-0  16265-3 0  9995,2 52845  53.2167 292.6193 0001677  94.2630 265.8554 15.08841934 76525,6917.874,95.437,540.9,538.579,0.0
52845.0,STARLINK-4168,PAYLOAD,2023-11-01 06:13:34,15.08845771,0.0001567,53.2168,292.3217,90.6284,269.4887,0.00023881,3.515e-05,0.0,0 STARLINK-4168,1 52845U 22062R   23305.25942930  .00003515  00000-0  23881-3 0  9992,2 52845  53.2168 292.3217 0001567  90.6284 269.4887 15.08845771 76042,6917.863,95.437,540.812,538.644,0.0
52845.0,STARLINK-4168,PAYLOAD,2023-11-02 06:04:21,15.08844801,0.0001598,53.2167,287.8614,103.0156,257.1015,0.000135,1.861e-05,0.0,0 STARLINK-4168,1 52845U 22062R   23306.25302821  .00001861  00000-0  13500-3 0  9991,2 52845  53.2167 287.8614 0001598 103.0156 257.1015 15.08844801 76682,6917.866,95.437,540.836,538.625,0.0
52845.0,STARLINK-4168,PAYLOAD,2023-11-02 15:36:40,15.08841404,0.0001636,53.2171,286.0755,93.0204,267.0975,2.1899e-06,-2.53e-06,0.0,0 STARLINK-4168,1 52845U 22062R   23306.65046865 -.00000253  00000-0  21899-5 0  9995,2 52845  53.2171 286.0755 0001636  93.0204 267.0975 15.08841404 76253,6917.876,95.437,540.873,538.609,0.0
52845.0,STARLINK-4168,PAYLOAD,2023-11-03 04:19:45,15.08843044,0.0001722,53.2178,283.6996,103.2476,256.8708,8.1249e-05,1.005e-05,0.0,0 STARLINK-4168,1 52845U 22062R   23307.18039007  .00001005  00000-0  81249-4 0  9993,2 52845  53.2178 283.6996 0001722 103.2476 256.8708 15.08843044 76826,6917.871,95.437,540.927,538.545,0.0
52845.0,STARLINK-4168,PAYLOAD,2023-11-03 05:55:08,15.08844467,0.000178,53.2173,283.4039,112.2352,247.8829,0.00010409,1.369e-05,0.0,0 STARLINK-4168,1 52845U 22062R   23307.24662916  .00001369  00000-0  10409-3 0  9993,2 52845  53.2173 283.4039 0001780 112.2352 247.8829 15.08844467 76345,6917.867,95.437,540.963,538.5,0.0
52845.0,STARLINK-4168,PAYLOAD,2023-11-03 15:27:27,15.08845427,0.0001366,53.2159,281.6167,99.7517,260.363,0.00015843,2.235e-05,0.0,0 STARLINK-4168,1 52845U 22062R   23307.64406709  .00002235  00000-0  15843-3 0  9993,2 52845  53.2159 281.6167 0001366  99.7517 260.3630 15.08845427 76407,6917.864,95.437,540.674,538.784,0.0
52845.0,STARLINK-4168,PAYLOAD,2023-11-04 07:21:18,15.08848799,0.0001612,53.2172,278.6418,92.4095,267.7081,0.00019104,2.754e-05,0.0,0 STARLINK-4168,1 52845U 22062R   23308.30646756  .00002754  00000-0  19104-3 0  9995,2 52845  53.2172 278.6418 0001612  92.4095 267.7081 15.08848799 76992,6917.853,95.437,540.834,538.603,0.0
52845.0,STARLINK-4168,PAYLOAD,2023-11-04 15:18:15,15.08835241,0.0001748,53.2172,277.1586,90.9757,269.1435,4.4898e-05,4.26e-06,0.0,0 STARLINK-4168,1 52845U 22062R   23308.63767664  .00000426  00000-0  44898-4 0  9996,2 52845  53.2172 277.1586 0001748  90.9757 269.1435 15.08835241 77044,6917.895,95.438,540.969,538.551,0.0
52845.0,STARLINK-4168,PAYLOAD,2023-11-05 04:01:19,15.088466,0.0001653,53.2163,274.7781,95.3756,264.7425,0.00012084,1.636e-05,0.0,0 STARLINK-4168,1 52845U 22062R   23309.16759091  .00001636  00000-0  12084-3 0  9995,2 52845  53.2163 274.7781 0001653  95.3756 264.7425 15.08846600 77127,6917.86,95.437,540.869,538.582,0.0
52845.0,STARLINK-4168,PAYLOAD,2023-11-05 07:12:05,15.08858729,0.0001519,53.2167,274.1837,84.1888,275.9277,0.00029546,4.42e-05,0.0,0 STARLINK-4168,1 52845U 22062R   23309.30006465  .00004420  00000-0  29546-3 0  9996,2 52845  53.2167 274.1837 0001519  84.1888 275.9277 15.08858729 77146,6917.823,95.436,540.739,538.637,0.0
